{
    "links": {
        "self": "http://www.neowsapp.com/rest/v1/neo/3646914?api_key=iIulBulltgU6a56xZRHN4H3l9WmuAYTsLGpBGhQ2"
    },
    "id": "3646914",
    "neo_reference_id": "3646914",
    "name": "(2013 QJ36)",
    "designation": "2013 QJ36",
    "nasa_jpl_url": "http://ssd.jpl.nasa.gov/sbdb.cgi?sstr=3646914",
    "absolute_magnitude_h": 22.6,
    "estimated_diameter": {
        "kilometers": {
            "estimated_diameter_min": 0.0802703167,
            "estimated_diameter_max": 0.1794898848
        },
        "meters": {
            "estimated_diameter_min": 80.2703167283,
            "estimated_diameter_max": 179.4898847799
        },
        "miles": {
            "estimated_diameter_min": 0.049877647,
            "estimated_diameter_max": 0.1115298092
        },
        "feet": {
            "estimated_diameter_min": 263.3540659348,
            "estimated_diameter_max": 588.8775935812
        }
    },
    "is_potentially_hazardous_asteroid": false,
    "close_approach_data": [
        {
            "close_approach_date": "1900-07-20",
            "close_approach_date_full": "1900-Jul-20 14:22",
            "epoch_date_close_approach": -2191657080000,
            "relative_velocity": {
                "kilometers_per_second": "14.2121610635",
                "kilometers_per_hour": "51163.7798286317",
                "miles_per_hour": "31791.1830829628"
            },
            "miss_distance": {
                "astronomical": "0.3756999547",
                "lunar": "146.1472823783",
                "kilometers": "56203912.982216489",
                "miles": "34923492.1033019882"
            },
            "orbiting_body": "Earth"
        },
        {
            "close_approach_date": "1922-10-04",
            "close_approach_date_full": "1922-Oct-04 01:02",
            "epoch_date_close_approach": -1490914680000,
            "relative_velocity": {
                "kilometers_per_second": "18.1113122785",
                "kilometers_per_hour": "65200.7242027418",
                "miles_per_hour": "40513.1944358648"
            },
            "miss_distance": {
                "astronomical": "0.4854386397",
                "lunar": "188.8356308433",
                "kilometers": "72620586.514817439",
                "miles": "45124340.0168570982"
            },
            "orbiting_body": "Earth"
        },
        {
            "close_approach_date": "2013-08-23",
            "close_approach_date_full": "2013-Aug-23 22:44",
            "epoch_date_close_approach": 1377297840000,
            "relative_velocity": {
                "kilometers_per_second": "7.1026650266",
                "kilometers_per_hour": "25569.5940956773",
                "miles_per_hour": "15887.9513979502"
            },
            "miss_distance": {
                "astronomical": "0.0901210452",
                "lunar": "35.0570865828",
                "kilometers": "13481916.404093724",
                "miles": "8377274.3941284312"
            },
            "orbiting_body": "Earth"
        },
        {
            "close_approach_date": "2148-07-16",
            "close_approach_date_full": "2148-Jul-16 15:35",
            "epoch_date_close_approach": 5634200100000,
            "relative_velocity": {
                "kilometers_per_second": "17.4343150375",
                "kilometers_per_hour": "62763.534135018",
                "miles_per_hour": "38998.8193073949"
            },
            "miss_distance": {
                "astronomical": "0.4833283187",
                "lunar": "188.0147159743",
                "kilometers": "72304886.988201169",
                "miles": "44928173.4273833722"
            },
            "orbiting_body": "Earth"
        }
    ],
    "orbital_data": {
        "orbit_id": "14",
        "orbit_determination_date": "2017-04-06 08:44:59",
        "first_observation_date": "2013-08-31",
        "last_observation_date": "2013-09-27",
        "data_arc_in_days": 27,
        "observations_used": 80,
        "orbit_uncertainty": "7",
        "minimum_orbit_intersection": ".0718264",
        "jupiter_tisserand_invariant": "3.925",
        "epoch_osculation": "2459000.5",
        "eccentricity": ".4069064803921661",
        "semi_major_axis": "1.819065321961263",
        "inclination": "9.824842382752886",
        "ascending_node_longitude": "341.3307548127574",
        "orbital_period": "896.1296953332289",
        "perihelion_distance": "1.078875854198563",
        "perihelion_argument": "351.8207527639952",
        "aphelion_distance": "2.559254789723963",
        "perihelion_time": "2459217.353825484575",
        "mean_anomaly": "272.8838408313013",
        "mean_motion": ".4017275645197013",
        "equinox": "J2000",
        "orbit_class": {
            "orbit_class_type": "AMO",
            "orbit_class_description": "Near-Earth asteroid orbits similar to that of 1221 Amor",
            "orbit_class_range": "1.017 AU < q (perihelion) < 1.3 AU"
        }
    },
    "is_sentry_object": false
}